[{"OBJECT_NAME":"STARLINK-32757","OBJECT_ID":"2025-003F","EPOCH":"2026-03-09T14:06:20.201184","MEAN_MOTION":15.27601008,"ECCENTRICITY":0.00013,"INCLINATION":42.9926,"RA_OF_ASC_NODE":289.7462,"ARG_OF_PERICENTER":75.9369,"MEAN_ANOMALY":284.1627,"EPHEMERIS_TYPE":0,"CLASSIFICATION_TYPE":"U","NORAD_CAT_ID":62492,"ELEMENT_SET_NO":999,"REV_AT_EPOCH":6653,"BSTAR":0.00081611,"MEAN_MOTION_DOT":0.00022278,"MEAN_MOTION_DDOT":0},{"OBJECT_NAME":"OBJECT H","OBJECT_ID":"2025-155H","EPOCH":"2026-03-09T22:09:58.611456","MEAN_MOTION":15.27590961,"ECCENTRICITY":0.00081993,"INCLINATION":97.4482,"RA_OF_ASC_NODE":37.3122,"ARG_OF_PERICENTER":152.0629,"MEAN_ANOMALY":208.1051,"EPHEMERIS_TYPE":0,"CLASSIFICATION_TYPE":"U","NORAD_CAT_ID":64883,"ELEMENT_SET_NO":999,"REV_AT_EPOCH":6559,"BSTAR":0.00050403256,"MEAN_MOTION_DOT":0.00013547,"MEAN_MOTION_DDOT":0}]
